data,si,gu,hospital_name,address,tel_num,latitude,longitude
2022년 02월 11일 00시,서울,강남구,연세대학교강남세브란스병원,서울특별시 강남구 언주로211,02-2019-2114,37.492736,127.0462661
2022년 02월 11일 00시,서울,강동구,중앙보훈병원,서울특별시 강동구 진황도로 61길 53,02-2225-1111,37.528778,127.1476066
2022년 02월 11일 00시,서울,강동구,강동경희대학교병원,서울특별시 강동구 동남로 892,02-440-8114,37.5528301,127.1571983
2022년 02월 11일 00시,서울,관악구,에이치플러스양지병원,서울특별시 관악구 남부순환로1636,02-1877-8875,37.4842166,126.9325109
2022년 02월 11일 00시,서울,광진구,건국대학교병원,서울특별시 광진구 능동로 120-1,02-1588-1533,37.5408245,127.0722209
2022년 02월 11일 00시,서울,광진구,혜민병원,서울특별시 광진구 자양로 85,02-2049-9000,37.535196,127.0833838
2022년 02월 11일 00시,서울,구로구,고려대학교구로병원,서울특별시 구로구 구로동로 148,02-2626-1114,37.4922173,126.8849478
2022년 02월 11일 00시,서울,구로구,구로성심병원,서울특별시 구로구 경인로 427,02-2067-1500,37.4996208,126.866356
2022년 02월 11일 00시,서울,구로구,우리아이들병원,서울특별시 구로구 새말로15,02-858-0100,37.5110915,126.880756
2022년 02월 11일 00시,서울,금천구,희명병원,서울특별시 금천구 시흥대로 244,02-804-0002,37.4556417,126.9005666
2022년 02월 11일 00시,서울,노원구,노원을지대학교병원,서울특별시 노원구 한글비석로 68,02-970-8000,37.6363293,127.0697068
2022년 02월 11일 00시,서울,노원구,한국원자력의학원원자력병원,서울특별시 노원구 노원로 75,02-970-2114,37.6294332,127.0826468
2022년 02월 11일 00시,서울,도봉구,한일병원,서울특별시 도봉구 우이천로 308,02-901-3114,37.6458568,127.0285789
2022년 02월 11일 00시,서울,동대문구,삼육서울병원,서울특별시 동대문구 망우로82,02-1577-3675,37.5892778,127.0645418
2022년 02월 11일 00시,서울,동대문구,경희대학교병원,서울특별시 동대문구 경희대로23,02-958-8114,37.5953632,127.0527612
2022년 02월 11일 00시,서울,동대문구,서울성심병원,서울특별시 동대문구 왕산로259,02-966-1616,37.584392,127.0497209
2022년 02월 11일 00시,서울,동작구,중앙대학교병원,서울특별시 동작구 흑석로102,02-6299-1114,37.5069754,126.9605231
2022년 02월 11일 00시,서울,동작구,서울특별시보라매병원,서울특별시 동작구 보라매로 5길 20,02-870-2114,37.4932234,126.9244612
2022년 02월 11일 00시,서울,서대문구,연세대학교신촌세브란스병원,서울특별시 서대문구 연세로 50-1,02-1599-1004,37.564089,126.9389809
2022년 02월 11일 00시,서울,서대문구,동신병원,서울특별시 서대문구 연희로 272,02-396-9161,37.5811559,126.9365265
2022년 02월 11일 00시,서울,서초구,가톨릭대학교 서울성모병원,서울특별시 서초구 반포대로 222,02-1588-1511,37.5003974,127.0066599
2022년 02월 11일 00시,서울,성북구,고려대학교안암병원,서울특별시 성북구 인촌로 73,1577-0083,37.5870127,127.0268837
2022년 02월 11일 00시,서울,성북구,성북우리아이들병원,서울특별시 성북구 동소문로46길10,02-912-0100,37.606888,127.029456
2022년 02월 11일 00시,서울,송파구,경찰병원,서울특별시 송파구 송이로123,02-3400-1114,37.4964365,127.1233624
2022년 02월 11일 00시,서울,양천구,이화여자대학교목동병원,서울특별시 양천구 안양천로 1071,02-2650-5114,37.5363794,126.8864324
2022년 02월 11일 00시,서울,양천구,홍익병원,서울특별시 양천구 목동로 225,02-2693-5555,37.5284349,126.8636189
2022년 02월 11일 00시,서울,영등포구,가톨릭대학교 여의도성모병원,서울특별시 영등포구 63로 10,1661-7575,37.5179713,126.936089
2022년 02월 11일 00시,서울,영등포구,한림대학교 강남성심병원,서울특별시 영등포구 신길로1,02-829-5114,37.4934858,126.9077859
2022년 02월 11일 00시,서울,영등포구,성애병원,서울특별시 영등포구 여의대방로53길 22,1811-8114,37.5120291,126.9223827
2022년 02월 11일 00시,서울,용산구,순천향대학교부속서울병원,서울특별시 용산구 대사관로 59,02-709-9114,37.5339355,127.0043336
2022년 02월 11일 00시,서울,은평구,은평성모병원,서울특별시 은평구 통일로 1021,1811-7755,37.6338843,126.9165592
2022년 02월 11일 00시,서울,은평구,청구성심병원,서울특별시 은평구 통일로 873,02-353-5511~9,37.6207324,126.9194449
2022년 02월 11일 00시,서울,종로구,서울대학교병원,서울특별시 종로구 대학로101,02-1588-5700,37.5775956,126.9998863
2022년 02월 11일 00시,서울,종로구,강북삼성병원,서울특별시 종로구 새문안로29,02-2001-2001,37.5683585,126.9674846
2022년 02월 11일 00시,서울,종로구,서울적십자병원,서울특별시 종로구 새문안로 9,02-2002-8000,37.5712545,126.9755799
2022년 02월 11일 00시,서울,종로구,세란병원,서울특별시 종로구 통일로 256,02-737-0181,37.5751936,126.9575253
2022년 02월 11일 00시,서울,중구,인제대학교 서울백병원,서울특별시 중구 마른내로9,02-2270-0114,37.5649381,126.9965425
2022년 02월 11일 00시,서울,중구,국립중앙의료원,서울특별시 중구 을지로 245,02-2260-7114,37.5674232,127.0059029
2022년 02월 11일 00시,서울,중랑구,동부제일병원,서울특별시 중랑구 망우로511,02-437-5011,37.6007761,127.1092825
2022년 02월 11일 00시,서울,중랑구,녹색병원,서울특별시 중랑구 사가정로 49길 53,02-490-2000,37.5835002,127.0861511
2022년 02월 11일 00시,서울,중랑구,서울특별시서울의료원,서울특별시 중랑구 신내로 156,02-2276-7000,37.613036,127.0984134
2022년 02월 11일 00시,부산,강서구,행복한어린이병원,부산광역시 강서구 명지국제1로25 8~10층,051-264-9500,35.0998348,128.928286
2022년 02월 11일 00시,부산,강서구,명지아동병원,부산광역시 강서구 명지국제8로 240 4층,051-717-0230,35.1007842,128.9219128
2022년 02월 11일 00시,부산,기장군,기장병원,부산광역시 기장군 기장읍 대청로72번길 6,051-723-0171,35.2358805,129.216446
2022년 02월 11일 00시,부산,기장군,정관우리아동병원,부산광역시 기장군 정관중앙로 56 프라임빌딩 3-5층,051-727-7811,35.3217504,129.1795358
2022년 02월 11일 00시,부산,남구,부산성모병원,부산광역시 남구 용호로 232번길 25-14,051-933-7114,35.110167,129.1092
2022년 02월 11일 00시,부산,남구,부산아동병원,부산광역시 남구 수영로 228,051-612-7582,35.134845,129.0914561
2022년 02월 11일 00시,부산,동구,김원묵기념봉생병원,부산광역시 동구 중앙대로 401,051-664-4000,35.1309523,129.0503957
2022년 02월 11일 00시,부산,동구,좋은문화병원,부산광역시 동구 범일로119,051-644-2002,35.1407228,129.058962
2022년 02월 11일 00시,부산,동래구,대동병원,부산광역시 동래구 충렬대로 187,051-554-1233,35.2045213,129.0802502
2022년 02월 11일 00시,부산,동래구,광혜병원,부산광역시 동래구 충렬대로 96,051-503-2111,35.206832,129.0710667
2022년 02월 11일 00시,부산,동래구,동래봉생병원,부산광역시 동래구 안연로 109번길 27,051-520-5500,35.1969082,129.0961081
2022년 02월 11일 00시,부산,북구,부민병원,부산광역시 북구 만덕대로59,051-330-3000,35.2119687,129.0112391
2022년 02월 11일 00시,부산,사상구,좋은삼선병원,부산광역시 사상구 가야대로326,051-322-0900,35.1501479,129.0077859
2022년 02월 11일 00시,부산,서구,부산대학교병원,부산광역시 서구 구덕로 179,051-240-7000,35.100814,129.0187289
2022년 02월 11일 00시,부산,서구,삼육부산병원,부산광역시 서구 대티로170,051-242-9751,35.112519,129.0112693
2022년 02월 11일 00시,부산,수영구,좋은강안병원,부산광역시 수영구 수영로493,051-625-0900,35.1499639,129.1104981
2022년 02월 11일 00시,부산,연제구,부산광역시의료원,부산광역시 연제구 월드컵대로 359,051-507-3000,35.1873066,129.0595584
2022년 02월 11일 00시,부산,연제구,한양류마디병원,부산광역시 연제구 과정로272(연산동),051-752-1990,35.1863882,129.1010912
2022년 02월 11일 00시,부산,영도구,해동병원,부산광역시 영도구 태종로133,051-412-6161,35.0919367,129.0438842
2022년 02월 11일 00시,부산,영도구,영도병원,부산광역시 영도구 태종로85,051-412-8881,35.0922458,129.0405355
2022년 02월 11일 00시,부산,영도구,아이(i)서울병원,부산광역시 영도구 영선대로 75 58911층 일부(영선동2가 삼호빌딩),051-730-8300,35.0877376,129.0417446
2022년 02월 11일 00시,부산,진구,온종합병원,부산광역시 진구 가야대로 721,051-607-0114,35.1577915,129.0499846
2022년 02월 11일 00시,부산,해운대구,해운대푸른바다어린이병원,부산광역시 해운대구 좌동순환로 505 1213층,051-714-3501,35.165662,129.1682306
2022년 02월 11일 00시,인천,강화군,비에스종합병원,인천광역시 강화군 강화읍 충렬사로 31,032-290-0001,37.7414342,126.4864013
2022년 02월 11일 00시,인천,계양구,한림병원,인천광역시 계양구 장제로722,032-540-9114,37.5321972,126.7343305
2022년 02월 11일 00시,인천,계양구,메디플렉스 세종병원,인천광역시 계양구 계양문화로20,032-240-8000,37.5361658,126.735528
2022년 02월 11일 00시,인천,남동구,길병원,인천광역시 남동구 남동대로 774번길 21,032-460-3114,37.4518347,126.7092631
2022년 02월 11일 00시,인천,남동구,국제바로병원,인천광역시 남동구 석정로 518 2층일부~9층 (간석동),032-722-8585,37.4653905,126.6933447
2022년 02월 11일 00시,인천,동구,인천광역시의료원,인천광역시 동구 방축로 217,032-580-6000,37.484578,126.6547403
2022년 02월 11일 00시,인천,동구,인천백병원,인천광역시 동구 샛골로 214,032-765-7070,37.4765342,126.644187
2022년 02월 11일 00시,인천,미추홀구,인천사랑병원,인천광역시 미추홀구 미추홀대로 726,032-457-2000,37.4620945,126.6807682
2022년 02월 11일 00시,인천,미추홀구,현대유비스병원,인천광역시 미추홀구 독배로503,032-888-7575,37.4614899,126.6429794
2022년 02월 11일 00시,인천,부평구,가톨릭대학교 인천성모병원,인천광역시 부평구 동수로 56,032-1544-9004,37.4844074,126.7249147
2022년 02월 11일 00시,인천,서구,뉴성민병원,인천광역시 서구 신석로 70,032-726-1000,37.5105516,126.6660572
2022년 02월 11일 00시,인천,서구,나은병원,인천광역시 서구 원적로23,032-584-0114,37.4890123,126.6797793
2022년 02월 11일 00시,인천,서구,검단탑병원,인천광역시 서구 청마로19번길5,032-590-0114,37.5925263,126.6709448
2022년 02월 11일 00시,인천,서구,온누리병원,인천광역시 서구 완정로 119,032-567-6200,37.5985883,126.6641715
2022년 02월 11일 00시,인천,서구,가톨릭관동대학교 국제성모병원,인천광역시 서구  심곡로100번길 25,1600-8291 ,37.5424593,126.6838205
2022년 02월 11일 00시,인천,서구,청라연세어린이병원,인천광역시 서구 중봉대로 612번길 10-16 마르씨엘 3~5층,032-590-1500,37.533316,126.6519963
2022년 02월 11일 00시,인천,연수구,나사렛국제병원,인천광역시 연수구 먼우금로 98,032-899-9999,37.4078996,126.6704962
2022년 02월 11일 00시,인천,연수구,인천적십자병원,인천광역시 연수구 원인재로 263,032-899-4000,37.418596,126.6888374
2022년 02월 11일 00시,인천,중구,인천기독병원,인천광역시 중구 답동로30번길10,032-270-8000,37.4712731,126.632106
2022년 02월 11일 00시,인천,중구,인하대학교병원,인천광역시 중구 인항로 27,032-890-2114,37.458619,126.6340376
2022년 02월 11일 00시,대구,남구,영남대학교병원,대구광역시 남구 현충로 170,053-623-8001,35.8469571,128.5827831
2022년 02월 11일 00시,대구,남구,드림병원,대구광역시 남구 대명로 153,053-640-8800,35.8396305,128.574495
2022년 02월 11일 00시,대구,달서구,구병원,대구광역시 달서구 감삼북길 141,053-560-9114,35.8506505,128.5413994
2022년 02월 11일 00시,대구,달서구,삼일병원,대구광역시 달서구 월배로 446,053-659-3100,35.8329469,128.5544063
2022년 02월 11일 00시,대구,동구,대구파티마병원,대구광역시 동구 아양로99,053-1688-7770,35.8840357,128.6238479
2022년 02월 11일 00시,대구,북구,대구가톨릭대학교칠곡가톨릭병원,대구광역시 북구 칠곡중앙대로440,053-320-2500,35.9349066,128.5492967
2022년 02월 11일 00시,대구,중구,경북대학교병원,대구광역시 중구 동덕로 130,053-420-5114,35.865942,128.6051356
2022년 02월 11일 00시,광주,광산구,첨단종합병원,광주광역시 광산구 첨단중앙로 170번길 59,062-601-8114,35.2209175,126.845173
2022년 02월 11일 00시,광주,광산구,KS병원,광주광역시 광산구 왕버들로 220,062-975-9000,35.1978963,126.8332013
2022년 02월 11일 00시,광주,광산구,하나아동병원,광주광역시 광산구 임방울대로 784 2층,062-975-3300,35.2171096,126.8441703
2022년 02월 11일 00시,광주,광산구,광산하나아동병원,광주광역시 광산구 장신로 141 3층,062-467-3300 ,35.1909989,126.8256424
2022년 02월 11일 00시,광주,광산구,광산수완미래아동병원,광주광역시 광산구 임방울대로 162(운남동),062-605-2500,35.1756009,126.8181083
2022년 02월 11일 00시,광주,남구,광주기독병원,광주광역시 남구 양림로 37,062-650-5000,35.1366727,126.912122
2022년 02월 11일 00시,광주,남구,미래아동병원,광주광역시 남구 대남대로 131,062-600-2500,35.1335713,126.9108466
2022년 02월 11일 00시,광주,동구,전남대학교병원,광주광역시 동구 제봉로42,1899-0000,35.1416819,126.9220315
2022년 02월 11일 00시,광주,서구,서광병원,광주광역시 서구 금화로 59번길6,062-600-8000,35.1326041,126.8554899
2022년 02월 11일 00시,광주,북구,북구미래아동병원,광주광역시 북구 설죽로 346,062-250-2500,35.1902812,126.8996087
2022년 02월 11일 00시,대전,동구,대전한국병원,대전광역시 동구 동서대로1672,042-606-1000,36.3481517,127.4358287
2022년 02월 11일 00시,대전,서구,대전을지대학교병원,대전광역시 서구 둔산서로95,042-259-1000,36.355327,127.3820082
2022년 02월 11일 00시,대전,서구,건양대학교병원,대전광역시 서구 가수원동 관저동로 158,1577-3330,36.2992196,127.3403195
2022년 02월 11일 00시,대전,유성구,유성선병원,대전광역시 유성구 북유성대로93,042-1588-7011,36.37518,127.3248025
2022년 02월 11일 00시,대전,유성구,봉키병원,대전광역시 유성구 계룡로120 6-9층,1522-6705,36.3526419,127.3437313
2022년 02월 11일 00시,대전,유성구,대전코젤병원,대전광역시 유성구 계백로 927,042-520-0000,36.3010323,127.3267594
2022년 02월 11일 00시,대전,중구,가톨릭대학교 대전성모병원,대전광역시 중구 대흥로64,042-220-9114,36.3219153,127.4203634
2022년 02월 11일 00시,대전,중구,대전선병원,대전광역시 중구 목중로29,042-220-8114,36.3360016,127.4101804
2022년 02월 11일 00시,울산,남구,울산병원,울산광역시 남구 월평로171번길 13,052-259-5000,35.546209,129.3230784
2022년 02월 11일 00시,울산,남구,좋은삼정병원,울산광역시 남구 북부순환도로 51,052-220-7500,35.5528284,129.2690588
2022년 02월 11일 00시,울산,남구,중앙병원,울산광역시 남구 문수로 480번길 10,052-226-1100,35.5315233,129.3052032
2022년 02월 11일 00시,울산,동구,울산대학교병원,울산광역시 동구 방어진순환도로877,052-250-7000,35.5200568,129.4288608
2022년 02월 11일 00시,울산,북구,울산시티병원,울산광역시 북구 산업로1007,052-280-9000,35.582894,129.3588552
2022년 02월 11일 00시,울산,북구,울산엘리야병원,울산광역시 북구 호계로 285,052-290-2100,35.6288954,129.3506373
2022년 02월 11일 00시,울산,울주군,서울산보람병원,울산광역시 울주군 삼남면 중평로 53,052-255-7114,35.5596168,129.1205746
2022년 02월 11일 00시,경기,고양시 덕양구,명지병원,경기도 고양시 덕양구 화수로 14번길 55,031-810-5114,37.6420879,126.830935
2022년 02월 11일 00시,경기,고양시 덕양구,자인메디병원,경기도 고양시 덕양구 중앙로 555,1688-5533,37.6230404,126.8354893
2022년 02월 11일 00시,경기,고양시 일산동구,국민건강보험공단 일산병원,경기도 고양시 일산동구 일산로100,031-900-0114,37.6454297,126.7929091
2022년 02월 11일 00시,경기,고양시 일산동구,동국대학교 일산불교병원,경기도 고양시 일산동구 동국로27,031-961-7000,37.6763007,126.8067038
2022년 02월 11일 00시,경기,광명시,광명성애병원,경기도 광명시 디지털로 36,02-2680-7114,37.4732445,126.8718849
2022년 02월 11일 00시,경기,광명시,아이원병원,경기도 광명시 소하로 75번길 10 하나로빌딩,1833-7588,37.4479817,126.8850381
2022년 02월 11일 00시,경기,구리시,한양대학교구리병원,경기도 구리시 경춘로153,031-560-2114,37.6011613,127.1323195
2022년 02월 11일 00시,경기,구리시,원진녹색병원,경기도 구리시 동구릉로 65,031-550-1111,37.6060922,127.1339736
2022년 02월 11일 00시,경기,군포시,원광대학교의과대학산본병원,경기도 군포시 산본로 321,031-390-2300,37.3593764,126.9335943
2022년 02월 11일 00시,경기,군포시,지샘병원,경기도 군포시 군포로 591,031-389-3000,37.3586521,126.9472959
2022년 02월 11일 00시,경기,김포시,김포우리병원,경기도 김포시 감암로11,031-999-1000,37.6323493,126.7107705
2022년 02월 11일 00시,경기,김포시,뉴고려병원,경기도 김포시 김포한강3로283,031-980-9114,37.6409053,126.6602394
2022년 02월 11일 00시,경기,김포시,히즈메디병원,경기도 김포시 김포대로 681,1588-0223,37.6111798,126.7349638
2022년 02월 11일 00시,경기,남양주시,남양주한양병원,경기도 남양주시 오남읍 양지로47-55,031-510-0114,37.6823506,127.20422
2022년 02월 11일 00시,경기,남양주시,중앙대의료원교육협력현대병원,경기도 남양주시 진접읍 봉현로21,031-574-9119,37.7155114,127.179653
2022년 02월 11일 00시,경기,남양주시,아이맘어린이병원,경기도 남양주시 다산중앙로 105-8 성산플레이스4차 3-5층,031-563-9999,37.6360028,127.2165279
2022년 02월 11일 00시,경기,부천시,세종병원,경기도 부천시 호현로489번길 28,1599-6677,37.4811218,126.791382
2022년 02월 11일 00시,경기,부천시,가톨릭대학교 부천성모병원,경기도 부천시 소사로327,032-1577-0675,37.4861238,126.7924958
2022년 02월 11일 00시,경기,부천시,순천향대학교부속부천병원,경기도 부천시 조마루로170,032-621-5114,37.4978251,126.7627444
2022년 02월 11일 00시,경기,부천시,다니엘종합병원,경기도 부천시 중동로 361,032-670-0001,37.5122452,126.7694774
2022년 02월 11일 00시,경기,부천시,부천우리병원,경기도 부천시 소사로 726,032-672-4100,37.5228052,126.8032697
2022년 02월 11일 00시,경기,성남시 분당구,차의과학대학교분당차병원,경기도 성남시 분당구 야탑로 59,1577-4488 ,37.4102789,127.1254597
2022년 02월 11일 00시,경기,성남시 분당구,분당제생병원,경기도 성남시 분당구 서현로 180번길 20,031-779-0000,37.3881717,127.1217664
2022년 02월 11일 00시,경기,성남시 분당구,분당서울대학교병원,경기도 성남시 분당구 구미로 173번길 82,031-1588-3369,37.3504033,127.1244617
2022년 02월 11일 00시,경기,성남시 수정구,정병원,경기도 성남시 수정구 수정로 76,031-750-6000,37.4398303,127.1290044
2022년 02월 11일 00시,경기,성남시 중원구,성남중앙병원,경기도 성남시 중원구 산성대로 476번길,1577-7986,37.4532401,127.161661
2022년 02월 11일 00시,경기,수원시 권선구,화홍병원,경기도 수원시 권선구 호매실로90번길 98,1588-0097,37.2600901,126.9641531
2022년 02월 11일 00시,경기,수원시 영통구,아주대학교병원,경기도 수원시 영통구 월드컵로 164,031-1688-6114,37.2795318,127.0477406
2022년 02월 11일 00시,경기,시흥시,신천연합병원,경기도 시흥시 복지로 57,031-310-6300,37.4445521,126.789516
2022년 02월 11일 00시,경기,시흥시,센트럴병원,경기도 시흥시 공단1대로237,031-8041-3531,37.3367245,126.7281671
2022년 02월 11일 00시,경기,시흥시,시화병원,경기도 시흥시 옥구천서로337,031-432-2600,37.3528958,126.7245906
2022년 02월 11일 00시,경기,안산시,근로복지공단안산병원,경기도 안산시 구룡로 87,031-500-1114,37.3166128,126.8743722
2022년 02월 11일 00시,경기,안산시 단원구,고려대학교안산병원,경기도 안산시 단원구 적금로 123,031-412-5114,37.3191333,126.8252651
2022년 02월 11일 00시,경기,안산시 단원구,의료법인 플러스의료재단 단원병원,경기도 안산시 단원구 원포공원1로 20,031-8040-6600,37.3003343,126.8132315
2022년 02월 11일 00시,경기,안성시,안성성모병원,경기도 안성시 시장길58,031-675-6007,37.0062179,127.2710329
2022년 02월 11일 00시,경기,안양시 동안구,한림대학교성심병원,경기도 안양시 동안구 관평로170번길 22,031-380-1500,37.3914308,126.9617537
2022년 02월 11일 00시,경기,안양시 만안구,안양샘병원,경기도 안양시 만안구 삼덕로 9,031-467-9114,37.3934995,126.9245371
2022년 02월 11일 00시,경기,여주시,세종여주병원,경기도 여주시 청심로 39,031-880-7700,37.3014144,127.6251858
2022년 02월 11일 00시,경기,오산시,오산한국병원,경기도 오산시 밀머리로 1번길 16,1566-3534,37.1413488,127.0755903
2022년 02월 11일 00시,경기,오산시,웰봄병원,경기도 오산시 경기대로 534 5층 일부 및 6-10층,031-373-7585,37.1498096,127.0772212
2022년 02월 11일 00시,경기,용인시 기흥구,연세대학교 용인세브란스병원,경기도 용인시 기흥구 동백죽전대로 363,1899-1004,37.2721371,127.1521978
2022년 02월 11일 00시,경기,용인시 기흥구,강남병원,경기도 용인시 기흥구 중부대로411,031-300-0114,37.2735367,127.1113393
2022년 02월 11일 00시,경기,용인시 처인구,다보스병원,경기도 용인시 처인구 처인구백옥대로1082번길 18,031-8021-2114,37.2314675,127.2113666
2022년 02월 11일 00시,경기,의정부시,가톨릭대학교 의정부성모병원,경기도 의정부시 천보로 271,031-1661-7500,37.7583561,127.0774459
2022년 02월 11일 00시,경기,의정부시,의정부백병원,경기도 의정부시 금신로 322,031-856-8111,37.7452366,127.0620467
2022년 02월 11일 00시,경기,의정부시,의정부을지대학교병원,경기도 의정부시 동일로 712(금오동),031-951-1000,37.7565525,127.0660432
2022년 02월 11일 00시,경기,의정부시,추병원,경기도 의정부시 평화로 650,031-845-7777,37.7499591,127.0450362
2022년 02월 11일 00시,경기,파주시,메디인병원,경기도 파주시 시청로6,031-1566-1991,37.7580017,126.774838
2022년 02월 11일 00시,경기,평택시,박애병원,경기도 평택시 평택2로20번길3,031-652-2121,36.9930038,127.0890655
2022년 02월 11일 00시,경기,평택시,평택굿모닝병원,경기도 평택시 중앙로338,031-659-7700,36.9906469,127.1205614
2022년 02월 11일 00시,경기,평택시,평택성모병원,경기도 평택시 평택로284,031-1800-8800,36.9994413,127.0795523
2022년 02월 11일 00시,경기,평택시,박병원,경기도 평택시 송탄로 33,031-666-2600,37.0482193,127.0570011
2022년 02월 11일 00시,경기,화성시,화성중앙종합병원,경기도 화성시 향남읍 발안로5,031-352-8114,37.1313154,126.9107719
2022년 02월 11일 00시,경기,화성시,한림대학교 동탄성심병원,경기도 화성시 큰재봉길7,031-8086-3000,37.2166142,127.0798384
2022년 02월 11일 00시,경기,화성시,원광종합병원,경기도 화성시 화산북로21,031-8077-7200,37.2099421,127.0082607
2022년 02월 11일 00시,경기,화성시,화성디에스병원,경기도 화성시 남양읍 시청로 160번길 46-13,1600-5982,37.1991926,126.8262164
2022년 02월 11일 00시,경기,화성시,센트럴아동병원,경기도 화성시 동탄지성로 17 지하1-2층 일부,031-8060-5000,37.2045828,127.0720326
2022년 02월 11일 00시,강원,강릉시,강릉아산병원,강원도 강릉시 사천면 방동길 38,033-610-3114,37.8182428,128.8592719
2022년 02월 11일 00시,강원,삼척시,강원도삼척의료원,강원도 삼척시 오십천로 418,033-572-1141,37.4398318,129.1633551
2022년 02월 11일 00시,강원,원주시,원주의료원,강원도 원주시 서원대로 387,033-760-4500,37.3330067,127.9489068
2022년 02월 11일 00시,강원,춘천시,한림대학교춘천성심병원,강원도 춘천시 삭주로77,033-240-5000,37.8839706,127.7398959
2022년 02월 11일 00시,강원,춘천시,강원대학교병원,강원도 춘천시 백령로156,033-258-2000,37.8753509,127.7450198
2022년 02월 11일 00시,충북,제천시,제천서울병원,충청북도 제천시 숭문로57,043-642-7606,37.1386904,128.2062186
2022년 02월 11일 00시,충북,제천시,제천명지병원,충청북도 제천시 내토로 991,043-640-8114,37.1633515,128.2339864
2022년 02월 11일 00시,충북,진천군,진천성모병원,충청북도 진천군 진천읍 중앙북로24,043-533-1711,36.8587463,127.4396491
2022년 02월 11일 00시,충북,청주시 상당구,한국병원,충청북도 청주시 상당구 단재로106,043-222-7000,36.6196583,127.4963221
2022년 02월 11일 00시,충북,청주시 상당구,효성병원,충청북도 청주시 상당구 쇠내로 16,043-221-5000,36.6244467,127.4955285
2022년 02월 11일 00시,충북,청주시 서원구,청주의료원,충청북도 청주시 서원구 흥덕로 48,043-279-0114,36.6401784,127.4731492
2022년 02월 11일 00시,충북,청주시 청원구,청주성모병원,충청북도 청주시 청원구 주성구 173-19,043-219-8000,36.6424341,127.4890319
2022년 02월 11일 00시,충북,청주시 흥덕구,하나병원,충청북도 청주시 흥덕구 2순환로 1262(가경동),043-230-6114,36.6281257,127.4357147
2022년 02월 11일 00시,충북,청주시 흥덕구,베스티안병원,충청북도 청주시 흥덕구 오송읍 오송생명1로 191,043-910-7575,36.6372677,127.3264337
2022년 02월 11일 00시,충북,충주시,건국대학교 충주병원,충청북도 충주시 국원대로 82,043-840-8200,36.9789554,127.9288846
2022년 02월 11일 00시,충남,논산시,백제병원,충청남도 논산시 시민로294번길14,041-730-8888,36.1923478,127.0943895
2022년 02월 11일 00시,충남,서산시,서산중앙병원,충청남도 서산시 수석산업로5,041-661-1000,36.7811126,126.5035261
2022년 02월 11일 00시,충남,아산시,아산충무병원,충청남도 아산시 문화로 381(모종동),041-536-6666,36.7793814,127.0194596
2022년 02월 11일 00시,충남,아산시,현대병원,충청남도 아산시 시민로 388,041-546-3636,36.7830692,127.0010239
2022년 02월 11일 00시,충남,아산시,꿈크는아이병원,충청남도 아산시 배방읍 배방로13번길 13,041-533-3391,36.7766131,127.0676389
2022년 02월 11일 00시,충남,천안시 동남구,충청남도천안의료원,충청남도 천안시 동남구 충절로 537,041-570-7114,36.7913954,127.1682678
2022년 02월 11일 00시,충남,천안시 동남구,단국대학교병원,충청남도 천안시 동남구 망향로 201,041-1588-0063,36.8418782,127.1749976
2022년 02월 11일 00시,충남,천안시 동남구,순천향대학교 부속 천안병원,충청남도 천안시 동남구 순천향6길 31,1577-7523,36.8027798,127.1353347
2022년 02월 11일 00시,충남,천안시 동남구,천안우리병원,충청남도 천안시 동남구 남부대로 350,041-590-9000,36.7809592,127.1557958
2022년 02월 11일 00시,충남,천안시 서북구,천안충무병원,충청남도 천안시 서북구 다가말3길8,041-570-7555,36.7973471,127.1315479
2022년 02월 11일 00시,충남,천안시 서북구,두정이진병원,충청남도 천안시 서북구 동서대로 65,041-562-2021,36.8261061,127.1306008
2022년 02월 11일 00시,전북,군산시,군산의료원,전라북도 군산시 의료원로 27,063-472-5000,35.9548898,126.7119167
2022년 02월 11일 00시,전북,군산시,동군산병원,전라북도 군산시 조촌로 149,063-440-0300,35.9773651,126.7370947
2022년 02월 11일 00시,전북,군산시,키움병원,전라남도 군산시 궁포안2길 24,063-467-0001,34.8679,126.991
2022년 02월 11일 00시,전북,익산시,익산병원,전라북도 익산시 무왕로 969,063-840-9114,35.9592947,126.9671608
2022년 02월 11일 00시,전북,전주시 덕진구,전북대학교병원,전라북도 전주시 덕진구 건지로 20,063-250-1114,35.8471872,127.1405894
2022년 02월 11일 00시,전북,전주시 덕진구,전주고려병원,전라북도 전주시 덕진구 안덕원로 367,063-240-7300,35.8399667,127.1671913
2022년 02월 11일 00시,전북,전주시 덕진구,대자인병원,전라북도 전주시 덕진구 견훤로390,063-240-2000,35.8459773,127.1533607
2022년 02월 11일 00시,전북,전주시 덕진구,호성전주병원,전라북도 전주시 덕진구 동부대로 895,063-240-8800,35.8654304,127.1479175
2022년 02월 11일 00시,전북,전주시 완산구,전주병원,전라북도 전주시 완산구 한두평3길13,063-220-7200,35.81532,127.1247526
2022년 02월 11일 00시,전북,전주시 완산구,미르아동병원,전라북도 전주시 완산구 백제대로 100,063-229-0114,35.8026013,127.125951
2022년 02월 11일 00시,전남,고흥군,고흥종합병원,전라남도 고흥군 고흥읍 고흥로 1935,061-835-6000,34.6210043,127.2939397
2022년 02월 11일 00시,전남,나주시,엔에이치미래아동병원,전라남도 나주시 중야2길29 4~6층 ,0507-1392-7701,35.0160601,126.7107572
2022년 02월 11일 00시,전남,목포시,목포시의료원,전라남도 목포시 이로로 18,061-260-6500,34.8041235,126.4053521
2022년 02월 11일 00시,전남,목포시,목포한국병원,전라남도 목포시 영산로 483,061-270-5500,34.8091621,126.4163944
2022년 02월 11일 00시,전남,목포시,목포기독병원,전라남도 목포시 백년대로303,061-280-7500,34.804445,126.4206723
2022년 02월 11일 00시,전남,목포시,목포중앙병원,전라남도 목포시 영산로 623번지,061-280-3000,34.8212302,126.4210798
2022년 02월 11일 00시,전남,목포시,목포아동병원,전라남도 목포시 옥암로 149,0507-1385-8015,34.8116571,126.4231893
2022년 02월 11일 00시,전남,순천시,성가롤로병원,전라남도 순천시 순광로 221,061-720-2000,34.9642662,127.5428763
2022년 02월 11일 00시,전남,여수시,여천전남병원,전라남도 여수시 무선로 95,061-690-6000,34.7690003,127.6542545
2022년 02월 11일 00시,전남,여수시,여수전남병원,전라남도 여수시 좌수영로49,061-640-7575,34.7453071,127.7281443
2022년 02월 11일 00시,전남,여수시,여수한국병원,전라남도 여수시 여천체육공원길10,061-653-2000,34.7612543,127.6750525
2022년 02월 11일 00시,경북,경주시,동국대학교 경주병원,경상북도 경주시 동대로87,054-748-9300,35.8583073,129.1954409
2022년 02월 11일 00시,경북,구미시,차의과학대학교부속구미차병원,경상북도 구미시 신시로10길 12,054-450-9700,36.1147524,128.3407379
2022년 02월 11일 00시,경북,구미시,순천향대학교부속구미병원,경상북도 구미시 1공단로 179,054-468-9114,36.1030929,128.3826739
2022년 02월 11일 00시,경북,김천시,김천제일병원,경상북도 김천시 신음1길 12,054-420-9300,36.1353472,128.1187424
2022년 02월 11일 00시,경북,문경시,문경제일병원,경상북도 문경시 당교3길 25,054-550-7700,36.5843256,128.1891835
2022년 02월 11일 00시,경북,상주시,상주적십자병원,경상북도 상주시 상서문로 53,054-534-3501,36.4144603,128.1551675
2022년 02월 11일 00시,경북,상주시,상주성모병원,경상북도 상주시 냉림서성길7,054-532-5001,36.420796,128.1599753
2022년 02월 11일 00시,경북,안동시,안동성소병원,경상북도 안동시 서동문로99,054-850-8114,36.5673945,128.7228393
2022년 02월 11일 00시,경북,안동시,안동병원,경상북도 안동시 앙실로11,054-840-1004,36.5471395,128.7008616
2022년 02월 11일 00시,경북,영주시,영주적십자병원,경상북도 영주시 대학로 327,054-630-0100,36.8112455,128.6127965
2022년 02월 11일 00시,경북,포항시 남구,포항세명기독병원,경상북도 포항시 남구 남구 포스코대로351,054-275-0005,36.0177961,129.3620249
2022년 02월 11일 00시,경남,거제시,거붕백병원,경상남도 거제시 계룡로 5길 14,055-733-0000,34.8726323,128.6268045
2022년 02월 11일 00시,경남,거제시,대우병원,경상남도 거제시 도모길16,055-680-8114,34.8722413,128.7217033
2022년 02월 11일 00시,경남,거제시,맑은샘병원,경상남도 거제시 연초면 거제대로 4477,055-736-1004,34.8977915,128.6437816
2022년 02월 11일 00시,경남,거제시,거제아동병원,경상남도 거제시 동문천로 52,055-632-8225,34.8829354,128.6262252
2022년 02월 11일 00시,경남,거제시,서울아동병원,경상남도 거제시 서문로5길 6,055-633-7599,34.8880404,128.6211212
2022년 02월 11일 00시,경남,거제시,대우아동병원,경상남도 거제시 옥포대첩로 38 유라빌딩 2346층,055-687-8595,34.8935307,128.6918305
2022년 02월 11일 00시,경남,김해시,아이사랑병원,경상남도 김해시 활천로 22 (삼정동),055-325-5775,35.2295598,128.8941097
2022년 02월 11일 00시,경남,사천시,사천서울아동병원,경상남도 사천시 사천읍 선평길 17,055-852-8175,35.0801425,128.0914476
2022년 02월 11일 00시,경남,양산시,양산부산대학교병원,경상남도 양산시 양산시 물금읍 금오로 20,055-1577-7512,35.3261303,129.0048926
2022년 02월 11일 00시,경남,진주시,진주고려병원,경상남도 진주시 동진로2,055-751-2500,35.1786102,128.0920617
2022년 02월 11일 00시,경남,진주시,경상대학교병원,경상남도 진주시 강남로 79,055-750-8000,35.1770869,128.0954964
2022년 02월 11일 00시,경남,진주시,진주제일병원,경상남도 진주시 진주대로 885,055-750-7123,35.1793942,128.0899721
2022년 02월 11일 00시,경남,진주시,한일병원,경상남도 진주시 범골로 17,055-759-7777,35.1670161,128.1287109
2022년 02월 11일 00시,경남,창원시 마산회원구,청아병원,경상남도 창원시 마산회원구 내서읍 광려천서로 67,055-230-1500,35.2479443,128.5096097
2022년 02월 11일 00시,경남,창원시 마산회원구,양덕서울아동병원,경상남도 창원시 마산회원구 양덕로 190 바른몸빌딩 456층,055-299-8275,35.2343393,128.5802767
2022년 02월 11일 00시,경남,창원시 성산구,한마음창원병원,경상남도 창원시 성산구 원이대로682번길 21,055-267-2000,35.2210303,128.6873232
2022년 02월 11일 00시,경남,창원시 성산구,CNA서울아동병원,경상남도 창원시 성산구 마디미서로 54,055-262-8511,35.2208447,128.6809275
2022년 02월 11일 00시,경남,창원시 성산구,창원경상대학교병원,경상남도 창원시 성산구 삼정자로 11,055-214-1000,35.1987379,128.7110367
2022년 02월 11일 00시,경남,창원시 진해구,연세에스병원,경상남도 창원시 진해구 해원로32번길 13,055-548-7700,35.1545448,128.6983452
2022년 02월 11일 00시,제주,제주시,제주한라병원,제주특별자치도 제주시 도령로 65,064-740-5000,33.4898195,126.4851928
2022년 02월 11일 00시,제주,제주시,제주대학교병원,제주특별자치도 제주시 아란13길 15,064-717-1114,33.4670429,126.5457558
2022년 02월 11일 00시,제주,제주시,한마음병원,제주특별자치도 제주시 연신로 52,064-750-9000,33.4963523,126.5462376
2022년 02월 11일 00시,제주,제주시,중앙병원,제주특별자치도 제주시 월랑로 91,064-786-7000,33.4923167,126.4707303
